COSMOS 2251 DEB         
1 34969U 93036AEY 17344.19551675  .00000178  00000-0  79255-4 0  9998
2 34969  74.0154 299.9627 0077846  39.6478 321.0326 14.28051803233576
